CTC1_L_00165016-03
1 48810U 22326CZ  26070.40833333  .00000000  00000+0  00000-0 0  9997
2 48810  80.0000 180.0000 0000000   0.0000   0.0000 13.98210060    11
CTC1_L_00165016-04
1 48811U 26494AX  26070.40833333  .00000000  00000+0  00000-0 0  9998
2 48811  80.0000 180.0000 0000000   0.0000  90.0000 13.98210060    11
CTC1_L_00165017-01
1 48812U 22311QP  26070.40833333  .00000000  00000+0  00000-0 0  9993
2 48812  80.0000 192.0000 0000000   0.0000 192.0000 13.98210060    18
CTC1_L_00165017-02
1 48813U 25367HC  26070.40833333  .00000000  00000+0  00000-0 0  9998
2 48813  80.0000 192.0000 0000000   0.0000 282.0000 13.98210060    19
CTC1_L_00165017-03
1 48814U 22967FM  26070.40833333  .00000000  00000+0  00000-0 0  9992
2 48814  80.0000 192.0000 0000000   0.0000  12.0000 13.98210060    11
CTC1_L_00165017-04
1 48815U 23867IU  26070.40833333  .00000000  00000+0  00000-0 0  9993
2 48815  80.0000 192.0000 0000000   0.0000 102.0000 13.98210060    12
CTC1_L_00165018-01
1 48816U 23167CL  26070.40833333  .00000000  00000+0  00000-0 0  9997
2 48816  80.0000 204.0000 0000000   0.0000 204.0000 13.98210060    10
CTC1_L_00165018-02
1 48817U 23279UR  26070.40833333  .00000000  00000+0  00000-0 0  9992
2 48817  80.0000 204.0000 0000000   0.0000 294.0000 13.98210060    10
CTC1_L_00165018-03
1 48818U 23964MX  26070.40833333  .00000000  00000+0  00000-0 0  9994
2 48818  80.0000 204.0000 0000000   0.0000  24.0000 13.98210060    12
CTC1_L_00165018-04
1 48819U 22072VT  26070.40833333  .00000000  00000+0  00000-0 0  9994
2 48819  80.0000 204.0000 0000000   0.0000 114.0000 13.98210060    13
CTC1_L_00165019-01
1 48820U 23941LX  26070.40833333  .00000000  00000+0  00000-0 0  9992
2 48820  80.0000 216.0000 0000000   0.0000 216.0000 13.98210060    11
CTC1_L_00165019-02
1 48821U 22697ZW  26070.40833333  .00000000  00000+0  00000-0 0  9990
2 48821  80.0000 216.0000 0000000   0.0000 306.0000 13.98210060    12
CTC1_L_00165019-03
1 48822U 26729XM  26070.40833333  .00000000  00000+0  00000-0 0  9991
2 48822  80.0000 216.0000 0000000   0.0000  36.0000 13.98210060    13
CTC1_L_00165019-04
1 48823U 23803PL  26070.40833333  .00000000  00000+0  00000-0 0  9992
2 48823  80.0000 216.0000 0000000   0.0000 126.0000 13.98210060    14
CTC1_L_00165020-01
1 48824U 25417AE  26070.40833333  .00000000  00000+0  00000-0 0  9996
2 48824  80.0000 228.0000 0000000   0.0000 228.0000 13.98210060    11
CTC1_L_00165020-02
1 48825U 23825ZL  26070.40833333  .00000000  00000+0  00000-0 0  9998
2 48825  80.0000 228.0000 0000000   0.0000 318.0000 13.98210060    12
CTC1_L_00165020-03
1 48826U 25673IR  26070.40833333  .00000000  00000+0  00000-0 0  9992
2 48826  80.0000 228.0000 0000000   0.0000  48.0000 13.98210060    13
CTC1_L_00165020-04
1 48827U 25646SC  26070.40833333  .00000000  00000+0  00000-0 0  9993
2 48827  80.0000 228.0000 0000000   0.0000 138.0000 13.98210060    14
CTC1_L_00165021-01
1 48828U 26475GL  26070.40833333  .00000000  00000+0  00000-0 0  9995
2 48828  80.0000 240.0000 0000000   0.0000 240.0000 13.98210060    13
CTC1_L_00165021-02
1 48829U 24117BB  26070.40833333  .00000000  00000+0  00000-0 0  9997
2 48829  80.0000 240.0000 0000000   0.0000 330.0000 13.98210060    14
CTC1_L_00165021-03
1 48830U 22450LF  26070.40833333  .00000000  00000+0  00000-0 0  9997
2 48830  80.0000 240.0000 0000000   0.0000  60.0000 13.98210060    16
CTC1_L_00165021-04
1 48831U 26172HE  26070.40833333  .00000000  00000+0  00000-0 0  9993
2 48831  80.0000 240.0000 0000000   0.0000 150.0000 13.98210060    17
CTC1_L_00165022-01
1 48832U 24776MO  26070.40833333  .00000000  00000+0  00000-0 0  9992
2 48832  80.0000 252.0000 0000000   0.0000 252.0000 13.98210060    14
CTC1_L_00165022-02
1 48833U 26572MZ  26070.40833333  .00000000  00000+0  00000-0 0  9999
2 48833  80.0000 252.0000 0000000   0.0000 342.0000 13.98210060    15
CTC1_L_00165022-03
1 48834U 24696I   26070.40833333  .00000000  00000+0  00000-0 0  9995
2 48834  80.0000 252.0000 0000000   0.0000  72.0000 13.98210060    16
CTC1_L_00165022-04
1 48835U 22367JC  26070.40833333  .00000000  00000+0  00000-0 0  9999
2 48835  80.0000 252.0000 0000000   0.0000 162.0000 13.98210060    17
CTC1_L_00165023-01
1 48836U 23830LC  26070.40833333  .00000000  00000+0  00000-0 0  9996
2 48836  80.0000 264.0000 0000000   0.0000 264.0000 13.98210060    14
CTC1_L_00165023-02
1 48837U 26156CA  26070.40833333  .00000000  00000+0  00000-0 0  9991
2 48837  80.0000 264.0000 0000000   0.0000 354.0000 13.98210060    15
CTC1_L_00165023-03
1 48838U 24129YC  26070.40833333  .00000000  00000+0  00000-0 0  9990
2 48838  80.0000 264.0000 0000000   0.0000  84.0000 13.98210060    16
CTC1_L_00165023-04
1 48839U 23999IV  26070.40833333  .00000000  00000+0  00000-0 0  9995
2 48839  80.0000 264.0000 0000000   0.0000 174.0000 13.98210060    17
CTC1_L_00165024-01
1 48840U 26103XR  26070.40833333  .00000000  00000+0  00000-0 0  9997
2 48840  80.0000 276.0000 0000000   0.0000 276.0000 13.98210060    15
CTC1_L_00165024-02
1 48841U 25004TI  26070.40833333  .00000000  00000+0  00000-0 0  9997
2 48841  80.0000 276.0000 0000000   0.0000   6.0000 13.98210060    17
CTC1_L_00165024-03
1 48842U 23826PU  26070.40833333  .00000000  00000+0  00000-0 0  9998
2 48842  80.0000 276.0000 0000000   0.0000  96.0000 13.98210060    17
CTC1_L_00165024-04
1 48843U 25563RL  26070.40833333  .00000000  00000+0  00000-0 0  9999
2 48843  80.0000 276.0000 0000000   0.0000 186.0000 13.98210060    18
CTC1_L_00165025-01
1 48844U 22285DQ  26070.40833333  .00000000  00000+0  00000-0 0  9998
2 48844  80.0000 288.0000 0000000   0.0000 288.0000 13.98210060    15
CTC1_L_00165025-02
1 48845U 22821QU  26070.40833333  .00000000  00000+0  00000-0 0  9995
2 48845  80.0000 288.0000 0000000   0.0000  18.0000 13.98210060    17
CTC1_L_00165025-03
1 48846U 23399OW  26070.40833333  .00000000  00000+0  00000-0 0  9997
2 48846  80.0000 288.0000 0000000   0.0000 108.0000 13.98210060    18
CTC1_L_00165025-04
1 48847U 22895SG  26070.40833333  .00000000  00000+0  00000-0 0  9998
2 48847  80.0000 288.0000 0000000   0.0000 198.0000 13.98210060    18
CTC1_L_00165026-01
1 48848U 24939PY  26070.40833333  .00000000  00000+0  00000-0 0  9990
2 48848  80.0000 300.0000 0000000   0.0000 300.0000 13.98210060    19
CTC1_L_00165026-02
1 48849U 24540BD  26070.40833333  .00000000  00000+0  00000-0 0  9999
2 48849  80.0000 300.0000 0000000   0.0000  30.0000 13.98210060    10
CTC1_L_00165026-03
1 48850U 23449ZP  26070.40833333  .00000000  00000+0  00000-0 0  9998
2 48850  80.0000 300.0000 0000000   0.0000 120.0000 13.98210060    12
CTC1_L_00165026-04
1 48851U 24567QQ  26070.40833333  .00000000  00000+0  00000-0 0  9991
2 48851  80.0000 300.0000 0000000   0.0000 210.0000 13.98210060    13
CTC1_L_00165027-01
1 48852U 22633IS  26070.40833333  .00000000  00000+0  00000-0 0  9994
2 48852  80.0000 312.0000 0000000   0.0000 312.0000 13.98210060    10
CTC1_L_00165027-02
1 48853U 24128H   26070.40833333  .00000000  00000+0  00000-0 0  9996
2 48853  80.0000 312.0000 0000000   0.0000  42.0000 13.98210060    11
CTC1_L_00165027-03
1 48854U 24123EQ  26070.40833333  .00000000  00000+0  00000-0 0  9992
2 48854  80.0000 312.0000 0000000   0.0000 132.0000 13.98210060    12
CTC1_L_00165027-04
1 48855U 22424VJ  26070.40833333  .00000000  00000+0  00000-0 0  9995
2 48855  80.0000 312.0000 0000000   0.0000 222.0000 13.98210060    13
CTC1_L_00165028-01
1 48856U 24477JM  26070.40833333  .00000000  00000+0  00000-0 0  9996
2 48856  80.0000 324.0000 0000000   0.0000 324.0000 13.98210060    10
CTC1_L_00165028-02
1 48857U 24095FK  26070.40833333  .00000000  00000+0  00000-0 0  9993
2 48857  80.0000 324.0000 0000000   0.0000  54.0000 13.98210060    11
CTC1_L_00165028-03
1 48858U 26792IA  26070.40833333  .00000000  00000+0  00000-0 0  9990
2 48858  80.0000 324.0000 0000000   0.0000 144.0000 13.98210060    12
CTC1_L_00165028-04
1 48859U 26291OF  26070.40833333  .00000000  00000+0  00000-0 0  9995
2 48859  80.0000 324.0000 0000000   0.0000 234.0000 13.98210060    13
CTC1_L_00165029-01
1 48860U 25986PQ  26070.40833333  .00000000  00000+0  00000-0 0  9997
2 48860  80.0000 336.0000 0000000   0.0000 336.0000 13.98210060    11
CTC1_L_00165029-02
1 48861U 23457DN  26070.40833333  .00000000  00000+0  00000-0 0  9999
2 48861  80.0000 336.0000 0000000   0.0000  66.0000 13.98210060    12
CTC1_L_00165029-03
1 48862U 26204OK  26070.40833333  .00000000  00000+0  00000-0 0  9993
2 48862  80.0000 336.0000 0000000   0.0000 156.0000 13.98210060    13
CTC1_L_00165029-04
1 48863U 25320XP  26070.40833333  .00000000  00000+0  00000-0 0  9992
2 48863  80.0000 336.0000 0000000   0.0000 246.0000 13.98210060    14
CTC1_L_00165030-01
1 48864U 23180QF  26070.40833333  .00000000  00000+0  00000-0 0  9995
2 48864  80.0000 348.0000 0000000   0.0000 348.0000 13.98210060    11
CTC1_L_00165030-02
1 48865U 24228LZ  26070.40833333  .00000000  00000+0  00000-0 0  9990
2 48865  80.0000 348.0000 0000000   0.0000  78.0000 13.98210060    12
CTC1_L_00165030-03
1 48866U 24666LV  26070.40833333  .00000000  00000+0  00000-0 0  9997
2 48866  80.0000 348.0000 0000000   0.0000 168.0000 13.98210060    13
CTC1_L_00165030-04
1 48867U 25286FV  26070.40833333  .00000000  00000+0  00000-0 0  9997
2 48867  80.0000 348.0000 0000000   0.0000 258.0000 13.98210060    14
